{"type": "FeatureCollection", "features": [ {"type": "Feature", "properties": {"norad_id": 28649, "name": "IRS-P5 (CARTOSAT-1)", "group": "resource", "lat": -41.2720681357108, "lon": -159.81635415743594, "alt_km": 603.4078294315786, "timestamp": "2025-12-27T02:10:15.844523+00:00", "meta": {"OBJECT_NAME": "IRS-P5 (CARTOSAT-1)", "OBJECT_ID": "2005-017A", "EPOCH": "2025-12-26T20:20:45.652704", "MEAN_MOTION": 14.90451268, "ECCENTRICITY": 4.66e-05, "INCLINATION": 97.5483, "RA_OF_ASC_NODE": 26.6348, "ARG_OF_PERICENTER": 75.7075, "MEAN_ANOMALY": 284.4196, "EPHEMERIS_TYPE": 0, "CLASSIFICATION_TYPE": "U", "NORAD_CAT_ID": 28649, "ELEMENT_SET_NO": 999, "REV_AT_EPOCH": 11814, "BSTAR": 0.00017521, "MEAN_MOTION_DOT": 1.656e-05, "MEAN_MOTION_DDOT": 0}, "tle": {"line1": "1 28649U 05017A   25360.84775061  .00001656  00000+0  17521-3 0  9992", "line2": "2 28649  97.5483  26.6348 0000466  75.7075 284.4196 14.90451268118142"}}, "geometry": {"type": "Point", "coordinates": [-159.81635415743594, -41.2720681357108]}}, {"type": "Feature", "properties": {"norad_id": 28893, "name": "SINAH 1", "group": "resource", "lat": -67.70296431744184, "lon": 150.4369896211159, "alt_km": 698.3012843913157, "timestamp": "2025-12-27T02:10:15.844534+00:00", "meta": {"OBJECT_NAME": "SINAH 1", "OBJECT_ID": "2005-043D", "EPOCH": "2025-12-26T19:55:33.657888", "MEAN_MOTION": 14.63977211, "ECCENTRICITY": 0.0015735, "INCLINATION": 98.261, "RA_OF_ASC_NODE": 129.4259, "ARG_OF_PERICENTER": 95.956, "MEAN_ANOMALY": 264.3436, "EPHEMERIS_TYPE": 0, "CLASSIFICATION_TYPE": "U", "NORAD_CAT_ID": 28893, "ELEMENT_SET_NO": 999, "REV_AT_EPOCH": 7530, "BSTAR": 0.00010578, "MEAN_MOTION_DOT": 5.06e-06, "MEAN_MOTION_DDOT": 0}, "tle": {"line1": "1 28893U 05043D   25360.83025067  .00000506  00000+0  10578-3 0  9993", "line2": "2 28893  98.2610 129.4259 0015735  95.9560 264.3436 14.63977211 75309"}}, "geometry": {"type": "Point", "coordinates": [150.4369896211159, -67.70296431744184]}}, {"type": "Feature", "properties": {"norad_id": 29079, "name": "EROS B", "group": "resource", "lat": 37.73501292974269, "lon": 112.66702970022237, "alt_km": 347.0464774359234, "timestamp": "2025-12-27T02:10:15.844545+00:00", "meta": {"OBJECT_NAME": "EROS B", "OBJECT_ID": "2006-014A", "EPOCH": "2025-12-26T21:25:47.099136", "MEAN_MOTION": 15.73084638, "ECCENTRICITY": 0.0004877, "INCLINATION": 97.3448, "RA_OF_ASC_NODE": 118.1876, "ARG_OF_PERICENTER": 311.9564, "MEAN_ANOMALY": 48.1283, "EPHEMERIS_TYPE": 0, "CLASSIFICATION_TYPE": "U", "NORAD_CAT_ID": 29079, "ELEMENT_SET_NO": 999, "REV_AT_EPOCH": 9302, "BSTAR": 0.0015917, "MEAN_MOTION_DOT": 0.00222693, "MEAN_MOTION_DDOT": 0}, "tle": {"line1": "1 29079U 06014A   25360.89290624  .00222693  00000+0  15917-2 0  9992", "line2": "2 29079  97.3448 118.1876 0004877 311.9564  48.1283 15.73084638 93026"}}, "geometry": {"type": "Point", "coordinates": [112.66702970022237, 37.73501292974269]}}, {"type": "Feature", "properties": {"norad_id": 29228, "name": "RESURS-DK 1", "group": "resource", "lat": -26.81249499693713, "lon": -104.60411841503048, "alt_km": 530.7036293204674, "timestamp": "2025-12-27T02:10:15.844555+00:00", "meta": {"OBJECT_NAME": "RESURS-DK 1", "OBJECT_ID": "2006-021A", "EPOCH": "2025-12-26T14:08:19.212000", "MEAN_MOTION": 15.12237827, "ECCENTRICITY": 0.0006959, "INCLINATION": 69.9336, "RA_OF_ASC_NODE": 66.0447, "ARG_OF_PERICENTER": 246.6774, "MEAN_ANOMALY": 113.3659, "EPHEMERIS_TYPE": 0, "CLASSIFICATION_TYPE": "U", "NORAD_CAT_ID": 29228, "ELEMENT_SET_NO": 999, "REV_AT_EPOCH": 7647, "BSTAR": 0.00017973, "MEAN_MOTION_DOT": 3.008e-05, "MEAN_MOTION_DDOT": 0}, "tle": {"line1": "1 29228U 06021A   25360.58911125  .00003008  00000+0  17973-3 0  9990", "line2": "2 29228  69.9336  66.0447 0006959 246.6774 113.3659 15.12237827 76473"}}, "geometry": {"type": "Point", "coordinates": [-104.60411841503048, -26.81249499693713]}}, {"type": "Feature", "properties": {"norad_id": 29268, "name": "ARIRANG-2 (KOMPSAT-2)", "group": "resource", "lat": -42.67601772131773, "lon": 1.57866922530319, "alt_km": 677.8727303191235, "timestamp": "2025-12-27T02:10:15.844566+00:00", "meta": {"OBJECT_NAME": "ARIRANG-2 (KOMPSAT-2)", "OBJECT_ID": "2006-031A", "EPOCH": "2025-12-26T20:44:59.857152", "MEAN_MOTION": 14.64507579, "ECCENTRICITY": 0.0013119, "INCLINATION": 97.826, "RA_OF_ASC_NODE": 188.6491, "ARG_OF_PERICENTER": 260.5149, "MEAN_ANOMALY": 212.4845, "EPHEMERIS_TYPE": 0, "CLASSIFICATION_TYPE": "U", "NORAD_CAT_ID": 29268, "ELEMENT_SET_NO": 999, "REV_AT_EPOCH": 3625, "BSTAR": 0.00016812, "MEAN_MOTION_DOT": 8.47e-06, "MEAN_MOTION_DDOT": 0}, "tle": {"line1": "1 29268U 06031A   25360.86458168  .00000847  00000+0  16812-3 0  9998", "line2": "2 29268  97.8260 188.6491 0013119 260.5149 212.4845 14.64507579 36250"}}, "geometry": {"type": "Point", "coordinates": [1.57866922530319, -42.67601772131773]}}, {"type": "Feature", "properties": {"norad_id": 29709, "name": "LAPAN-TUBSAT", "group": "resource", "lat": 8.851185961225458, "lon": 172.81738372787186, "alt_km": 620.1524494035648, "timestamp": "2025-12-27T02:10:15.844577+00:00", "meta": {"OBJECT_NAME": "LAPAN-TUBSAT", "OBJECT_ID": "2007-001A", "EPOCH": "2025-12-26T20:33:20.531232", "MEAN_MOTION": 14.85690352, "ECCENTRICITY": 0.0013037, "INCLINATION": 98.1268, "RA_OF_ASC_NODE": 351.3035, "ARG_OF_PERICENTER": 32.0907, "MEAN_ANOMALY": 328.1099, "EPHEMERIS_TYPE": 0, "CLASSIFICATION_TYPE": "U", "NORAD_CAT_ID": 29709, "ELEMENT_SET_NO": 999, "REV_AT_EPOCH": 2556, "BSTAR": 8.0954e-05, "MEAN_MOTION_DOT": 6.45e-06, "MEAN_MOTION_DDOT": 0}, "tle": {"line1": "1 29709U 07001A   25360.85648763  .00000645  00000+0  80954-4 0  9992", "line2": "2 29709  98.1268 351.3035 0013037  32.0907 328.1099 14.85690352 25561"}}, "geometry": {"type": "Point", "coordinates": [172.81738372787186, 8.851185961225458]}}, {"type": "Feature", "properties": {"norad_id": 31113, "name": "HAIYANG-1B", "group": "resource", "lat": 64.92426269607058, "lon": -176.96902150304498, "alt_km": 786.522198144492, "timestamp": "2025-12-27T02:10:15.844587+00:00", "meta": {"OBJECT_NAME": "HAIYANG-1B", "OBJECT_ID": "2007-010A", "EPOCH": "2025-12-26T17:15:05.442336", "MEAN_MOTION": 14.3096964, "ECCENTRICITY": 0.0013504, "INCLINATION": 98.3331, "RA_OF_ASC_NODE": 344.4203, "ARG_OF_PERICENTER": 357.8012, "MEAN_ANOMALY": 2.311, "EPHEMERIS_TYPE": 0, "CLASSIFICATION_TYPE": "U", "NORAD_CAT_ID": 31113, "ELEMENT_SET_NO": 999, "REV_AT_EPOCH": 97596, "BSTAR": 6.9884e-05, "MEAN_MOTION_DOT": 1.42e-06, "MEAN_MOTION_DDOT": 0}, "tle": {"line1": "1 31113U 07010A   25360.71881299  .00000142  00000+0  69884-4 0  9993", "line2": "2 31113  98.3331 344.4203 0013504 357.8012   2.3110 14.30969640975962"}}, "geometry": {"type": "Point", "coordinates": [-176.96902150304498, 64.92426269607058]}}, {"type": "Feature", "properties": {"norad_id": 31598, "name": "COSMO-SKYMED 1", "group": "resource", "lat": -68.98688345860604, "lon": -152.27020733693726, "alt_km": 587.6073564102862, "timestamp": "2025-12-27T02:10:15.844598+00:00", "meta": {"OBJECT_NAME": "COSMO-SKYMED 1", "OBJECT_ID": "2007-023A", "EPOCH": "2025-12-26T20:03:50.464800", "MEAN_MOTION": 14.95868511, "ECCENTRICITY": 0.0001124, "INCLINATION": 97.8838, "RA_OF_ASC_NODE": 186.3284, "ARG_OF_PERICENTER": 77.6556, "MEAN_ANOMALY": 282.479, "EPHEMERIS_TYPE": 0, "CLASSIFICATION_TYPE": "U", "NORAD_CAT_ID": 31598, "ELEMENT_SET_NO": 999, "REV_AT_EPOCH": 401, "BSTAR": 0.00032288, "MEAN_MOTION_DOT": 3.55e-05, "MEAN_MOTION_DDOT": 0}, "tle": {"line1": "1 31598U 07023A   25360.83600075  .00003550  00000+0  32288-3 0  9991", "line2": "2 31598  97.8838 186.3284 0001124  77.6556 282.4790 14.95868511  4012"}}, "geometry": {"type": "Point", "coordinates": [-152.27020733693726, -68.98688345860604]}}, {"type": "Feature", "properties": {"norad_id": 31698, "name": "TERRASAR-X", "group": "resource", "lat": 67.3879880250036, "lon": -12.036691299583493, "alt_km": 500.59531990754385, "timestamp": "2025-12-27T02:10:15.844609+00:00", "meta": {"OBJECT_NAME": "TERRASAR-X", "OBJECT_ID": "2007-026A", "EPOCH": "2025-12-26T13:13:25.268160", "MEAN_MOTION": 15.19159007, "ECCENTRICITY": 0.0001831, "INCLINATION": 97.4449, "RA_OF_ASC_NODE": 5.7296, "ARG_OF_PERICENTER": 80.7089, "MEAN_ANOMALY": 279.4352, "EPHEMERIS_TYPE": 0, "CLASSIFICATION_TYPE": "U", "NORAD_CAT_ID": 31698, "ELEMENT_SET_NO": 999, "REV_AT_EPOCH": 2701, "BSTAR": 7.4512e-05, "MEAN_MOTION_DOT": 1.498e-05, "MEAN_MOTION_DDOT": 0}, "tle": {"line1": "1 31698U 07026A   25360.55098690  .00001498  00000+0  74512-4 0  9994", "line2": "2 31698  97.4449   5.7296 0001831  80.7089 279.4352 15.19159007 27010"}}, "geometry": {"type": "Point", "coordinates": [-12.036691299583493, 67.3879880250036]}}, {"type": "Feature", "properties": {"norad_id": 32060, "name": "WORLDVIEW-1 (WV-1)", "group": "resource", "lat": -23.069280043438198, "lon": 121.52471752772962, "alt_km": 497.2968597862591, "timestamp": "2025-12-27T02:10:15.844619+00:00", "meta": {"OBJECT_NAME": "WORLDVIEW-1 (WV-1)", "OBJECT_ID": "2007-041A", "EPOCH": "2025-12-26T18:23:37.622688", "MEAN_MOTION": 15.2398676, "ECCENTRICITY": 0.0003036, "INCLINATION": 97.3817, "RA_OF_ASC_NODE": 118.0405, "ARG_OF_PERICENTER": 348.4231, "MEAN_ANOMALY": 11.6936, "EPHEMERIS_TYPE": 0, "CLASSIFICATION_TYPE": "U", "NORAD_CAT_ID": 32060, "ELEMENT_SET_NO": 999, "REV_AT_EPOCH": 1661, "BSTAR": 0.00036369, "MEAN_MOTION_DOT": 8.739e-05, "MEAN_MOTION_DDOT": 0}, "tle": {"line1": "1 32060U 07041A   25360.76640767  .00008739  00000+0  36369-3 0  9998", "line2": "2 32060  97.3817 118.0405 0003036 348.4231  11.6936 15.23986760 16611"}}, "geometry": {"type": "Point", "coordinates": [121.52471752772962, -23.069280043438198]}}]}